GLOBALSTAR M045         
1 25676U 99019A   25340.86180053 -.00000058  00000+0  31519-3 0  9994
2 25676  51.9938 173.1066 0001086  98.9557 274.5099 12.27070265214594
GLOBALSTAR M019         
1 25677U 99019B   25340.71667525 -.00000121  00000+0 -31984-3 0  9991
2 25677  51.9891 316.0279 0001407 323.7824 207.8316 12.13875922206095
GLOBALSTAR M044         
1 25678U 99019C   25340.61261620 -.00000027  00000+0  78943-3 0  9997
2 25678  51.9984 289.2479 0006600  13.8048 157.4143 11.90260768191852
GLOBALSTAR M042         
1 25679U 99019D   25340.58134565 -.00000035  00000+0  53837-3 0  9995
2 25679  52.0025 284.2773 0002873 307.2260 223.6216 12.22093115206330
GLOBALSTAR M025         
1 25770U 99031A   25340.80746479 -.00000083  00000+0 -47736-3 0  9994
2 25770  51.9796 119.3809 0003108  83.9374  65.5617 11.22558753501091
GLOBALSTAR M049         
1 25771U 99031B   25340.83142576 -.00000081  00000+0 -55592-3 0  9993
2 25771  51.9835 162.7668 0002098 328.3214  31.7456 11.12124403136637
GLOBALSTAR M047         
1 25772U 99031C   25340.70218894 -.00000080  00000+0 -29790-3 0  9997
2 25772  51.9796 143.5455 0016219 194.6706 165.3630 11.31931816490642
GLOBALSTAR M052         
1 25773U 99031D   25340.97748957 -.00000010  00000+0  18794-2 0  9998
2 25773  51.9872 268.6806 0003129  85.6090 356.8472 11.15062362497784
